{
  "type": "FeatureCollection",
  "features": [
    {
      "type": "Feature",
      "properties": {
        "norad_id": 33376,
        "name": "GALAXY 19 (G-19)",
        "group": "intelsat",
        "lat": -0.00567132411474888,
        "lon": -31.371033115886597,
        "alt_km": 35780.59917297948,
        "timestamp": "2025-12-02T23:34:15.181282+00:00",
        "meta_object_name": "GALAXY 19 (G-19)",
        "meta_object_id": "2008-045A",
        "meta_epoch": "2025-12-02T09:32:38.891040",
        "meta_mean_motion": 1.00270191,
        "meta_eccentricity": 0.0003436,
        "meta_inclination": 0.0195,
        "meta_ra_of_asc_node": 351.8467,
        "meta_arg_of_pericenter": 271.0405,
        "meta_mean_anomaly": 214.7588,
        "meta_ephemeris_type": 0,
        "meta_classification_type": "U",
        "meta_norad_cat_id": 33376,
        "meta_element_set_no": 999,
        "meta_rev_at_epoch": 6293,
        "meta_bstar": 0,
        "meta_mean_motion_dot": 0,
        "meta_mean_motion_ddot": 0,
        "tle_line1": "1 33376U 08045A   25336.39767235  .00000000  00000+0  00000+0 0  9998",
        "tle_line2": "2 33376   0.0195 351.8467 0003436 271.0405 214.7588  1.00270191 62934"
      },
      "geometry": {
        "type": "Point",
        "coordinates": [
          -31.371033115886597,
          -0.00567132411474888
        ]
      }
    },
    {
      "type": "Feature",
      "properties": {
        "norad_id": 35493,
        "name": "FM-5",
        "group": "intelsat",
        "lat": 0.032749690436531136,
        "lon": -20.514207751802648,
        "alt_km": 35791.89019862378,
        "timestamp": "2025-12-02T23:34:15.181294+00:00",
        "meta_object_name": "FM-5",
        "meta_object_id": "2009-034A",
        "meta_epoch": "2025-12-02T08:19:38.698752",
        "meta_mean_motion": 1.00271266,
        "meta_eccentricity": 0.0001343,
        "meta_inclination": 0.0253,
        "meta_ra_of_asc_node": 282.057,
        "meta_arg_of_pericenter": 240.7007,
        "meta_mean_anomaly": 307.4775,
        "meta_ephemeris_type": 0,
        "meta_classification_type": "U",
        "meta_norad_cat_id": 35493,
        "meta_element_set_no": 999,
        "meta_rev_at_epoch": 4467,
        "meta_bstar": 0,
        "meta_mean_motion_dot": -1.8e-06,
        "meta_mean_motion_ddot": 0,
        "tle_line1": "1 35493U 09034A   25336.34697568 -.00000180  00000+0  00000+0 0  9995",
        "tle_line2": "2 35493   0.0253 282.0570 0001343 240.7007 307.4775  1.00271266 44670"
      },
      "geometry": {
        "type": "Point",
        "coordinates": [
          -20.514207751802648,
          0.032749690436531136
        ]
      }
    },
    {
      "type": "Feature",
      "properties": {
        "norad_id": 36097,
        "name": "INTELSAT 14 (IS-14)",
        "group": "intelsat",
        "lat": 0.0405810851743554,
        "lon": 20.64360167289812,
        "alt_km": 35792.971322312565,
        "timestamp": "2025-12-02T23:34:15.181307+00:00",
        "meta_object_name": "INTELSAT 14 (IS-14)",
        "meta_object_id": "2009-064A",
        "meta_epoch": "2025-12-02T08:26:03.277248",
        "meta_mean_motion": 1.00271807,
        "meta_eccentricity": 0.0002591,
        "meta_inclination": 0.0187,
        "meta_ra_of_asc_node": 299.668,
        "meta_arg_of_pericenter": 312.5197,
        "meta_mean_anomaly": 260.7885,
        "meta_ephemeris_type": 0,
        "meta_classification_type": "U",
        "meta_norad_cat_id": 36097,
        "meta_element_set_no": 999,
        "meta_rev_at_epoch": 5863,
        "meta_bstar": 0,
        "meta_mean_motion_dot": -2.53e-06,
        "meta_mean_motion_ddot": 0,
        "tle_line1": "1 36097U 09064A   25336.35142682 -.00000253  00000+0  00000+0 0  9993",
        "tle_line2": "2 36097   0.0187 299.6680 0002591 312.5197 260.7885  1.00271807 58632"
      },
      "geometry": {
        "type": "Point",
        "coordinates": [
          20.64360167289812,
          0.0405810851743554
        ]
      }
    },
    {
      "type": "Feature",
      "properties": {
        "norad_id": 36106,
        "name": "INTELSAT 15 (IS-15)",
        "group": "intelsat",
        "lat": -0.010537888184811953,
        "lon": 150.7514453991193,
        "alt_km": 35788.280855796205,
        "timestamp": "2025-12-02T23:34:15.181319+00:00",
        "meta_object_name": "INTELSAT 15 (IS-15)",
        "meta_object_id": "2009-067A",
        "meta_epoch": "2025-12-02T07:20:17.077344",
        "meta_mean_motion": 1.00270632,
        "meta_eccentricity": 0.0002384,
        "meta_inclination": 0.0143,
        "meta_ra_of_asc_node": 315.705,
        "meta_arg_of_pericenter": 295.5476,
        "meta_mean_anomaly": 15.397,
        "meta_ephemeris_type": 0,
        "meta_classification_type": "U",
        "meta_norad_cat_id": 36106,
        "meta_element_set_no": 999,
        "meta_rev_at_epoch": 3925,
        "meta_bstar": 0,
        "meta_mean_motion_dot": -1.64e-06,
        "meta_mean_motion_ddot": 0,
        "tle_line1": "1 36106U 09067A   25336.30575321 -.00000164  00000+0  00000+0 0  9993",
        "tle_line2": "2 36106   0.0143 315.7050 0002384 295.5476  15.3970  1.00270632 39257"
      },
      "geometry": {
        "type": "Point",
        "coordinates": [
          150.7514453991193,
          -0.010537888184811953
        ]
      }
    },
    {
      "type": "Feature",
      "properties": {
        "norad_id": 36131,
        "name": "DIRECTV 12",
        "group": "intelsat",
        "lat": -0.0013894925664405164,
        "lon": -37.091912371156646,
        "alt_km": 35786.32394114581,
        "timestamp": "2025-12-02T23:34:15.181332+00:00",
        "meta_object_name": "DIRECTV 12",
        "meta_object_id": "2009-075A",
        "meta_epoch": "2025-12-02T12:21:09.010368",
        "meta_mean_motion": 1.00272262,
        "meta_eccentricity": 1.86e-05,
        "meta_inclination": 0.0107,
        "meta_ra_of_asc_node": 85.0371,
        "meta_arg_of_pericenter": 119.5423,
        "meta_mean_anomaly": 309.6165,
        "meta_ephemeris_type": 0,
        "meta_classification_type": "U",
        "meta_norad_cat_id": 36131,
        "meta_element_set_no": 999,
        "meta_rev_at_epoch": 4458,
        "meta_bstar": 0,
        "meta_mean_motion_dot": -8.3e-07,
        "meta_mean_motion_ddot": 0,
        "tle_line1": "1 36131U 09075A   25336.51468762 -.00000083  00000+0  00000+0 0  9993",
        "tle_line2": "2 36131   0.0107  85.0371 0000186 119.5423 309.6165  1.00272262 44581"
      },
      "geometry": {
        "type": "Point",
        "coordinates": [
          -37.091912371156646,
          -0.0013894925664405164
        ]
      }
    },
    {
      "type": "Feature",
      "properties": {
        "norad_id": 36397,
        "name": "INTELSAT 16 (IS-16)",
        "group": "intelsat",
        "lat": 0.02504373345961767,
        "lon": -10.554468397095876,
        "alt_km": 35787.553117587515,
        "timestamp": "2025-12-02T23:34:15.181344+00:00",
        "meta_object_name": "INTELSAT 16 (IS-16)",
        "meta_object_id": "2010-006A",
        "meta_epoch": "2025-12-02T08:17:11.625216",
        "meta_mean_motion": 1.00270694,
        "meta_eccentricity": 0.0002335,
        "meta_inclination": 0.0147,
        "meta_ra_of_asc_node": 305.7372,
        "meta_arg_of_pericenter": 307.3002,
        "meta_mean_anomaly": 226.5186,
        "meta_ephemeris_type": 0,
        "meta_classification_type": "U",
        "meta_norad_cat_id": 36397,
        "meta_element_set_no": 999,
        "meta_rev_at_epoch": 5768,
        "meta_bstar": 0,
        "meta_mean_motion_dot": -2.24e-06,
        "meta_mean_motion_ddot": 0,
        "tle_line1": "1 36397U 10006A   25336.34527344 -.00000224  00000+0  00000+0 0  9993",
        "tle_line2": "2 36397   0.0147 305.7372 0002335 307.3002 226.5186  1.00270694 57682"
      },
      "geometry": {
        "type": "Point",
        "coordinates": [
          -10.554468397095876,
          0.02504373345961767
        ]
      }
    },
    {
      "type": "Feature",
      "properties": {
        "norad_id": 37185,
        "name": "XM-5",
        "group": "intelsat",
        "lat": 0.0395090090597423,
        "lon": -49.56020663547733,
        "alt_km": 35792.5838705721,
        "timestamp": "2025-12-02T23:34:15.181356+00:00",
        "meta_object_name": "XM-5",
        "meta_object_id": "2010-053A",
        "meta_epoch": "2025-12-02T10:37:38.766720",
        "meta_mean_motion": 1.00270481,
        "meta_eccentricity": 0.0001582,
        "meta_inclination": 0.0649,
        "meta_ra_of_asc_node": 272.7549,
        "meta_arg_of_pericenter": 239.5567,
        "meta_mean_anomaly": 323.4678,
        "meta_ephemeris_type": 0,
        "meta_classification_type": "U",
        "meta_norad_cat_id": 37185,
        "meta_element_set_no": 999,
        "meta_rev_at_epoch": 5551,
        "meta_bstar": 0,
        "meta_mean_motion_dot": -2e-08,
        "meta_mean_motion_ddot": 0,
        "tle_line1": "1 37185U 10053A   25336.44280980 -.00000002  00000+0  00000+0 0  9998",
        "tle_line2": "2 37185   0.0649 272.7549 0001582 239.5567 323.4678  1.00270481 55516"
      },
      "geometry": {
        "type": "Point",
        "coordinates": [
          -49.56020663547733,
          0.0395090090597423
        ]
      }
    }
  ]
}